ION SCV-004             
1 50993U 22002K   26068.68892644  .00006538  00000+0  23198-3 0  9998
2 50993  97.2961 128.2294 0007216   1.6783 358.4480 15.29369331230088
STARLINK-32665          
1 62203U 24229M   26068.57456917  .00026498  00000+0  96895-3 0  9996
2 62203  42.9995 271.3734 0001599 246.8294 113.2389 15.27580721 70540
